STARLINK-36308          
1 68543U 26070B   26099.83335647 -.00901532  27261-3 -18092-2 0  9991
2 68543  53.1587 228.8490 0000735  55.7087 235.4353 15.99033357  2335
STARLINK-37263          
1 68544U 26070C   26099.83335647 -.00901999  27342-3 -17907-2 0  9993
2 68544  53.1585 228.8426 0000832  52.8585 241.6245 15.99223533  2383
STARLINK-37289          
1 68545U 26070D   26099.83335647 -.00900670  27237-3 -17996-2 0  9990
2 68545  53.1583 228.8467 0000781  53.1013 239.3328 15.99110289  2389
STARLINK-37290          
1 68546U 26070E   26099.83335647 -.00902318  27394-3 -17796-2 0  9994
2 68546  53.1588 228.8378 0000847  49.5615 247.0337 15.99339493  2382
STARLINK-37245          
1 68547U 26070F   26099.83335647 -.00900447  27355-3 -17542-2 0  9992
2 68547  53.1587 228.8298 0000889  52.5623 247.9694 15.99555711  2380
STARLINK-37145          
1 68548U 26070G   26099.83335647 -.00898945  27237-3 -17635-2 0  9994
2 68548  53.1585 228.8345 0000846  52.0241 246.2731 15.99433044  2384
STARLINK-36204          
1 68549U 26070H   26099.83335647 -.00900947  27415-3 -17439-2 0  9991
2 68549  53.1588 228.8256 0000733  53.5110 249.0612 15.99668659  2331
STARLINK-36304          
1 68550U 26070J   26099.83335647 -.00904455  27678-3 -17274-2 0  9999
2 68550  53.1587 228.8167 0000781  53.0083 253.8032 15.99904146  2333
STARLINK-37288          
1 68551U 26070K   26099.83335647 -.00901473  27543-3 -17121-2 0  9999
2 68551  53.1586 228.8129 0000795  51.6965 256.8772 16.00001535  2381
STARLINK-37295          
1 68552U 26070L   26099.83335647 -.00901507  27483-3 -17325-2 0  9997
2 68552  53.1584 228.8209 0000791  52.5125 252.3801 15.99794546  2385
STARLINK-37254          
1 68553U 26070M   26099.83335647 -.00918919  28593-3 -17193-2 0  9999
2 68553  53.1583 228.8032 0000696  50.7090 262.5607 16.00266449  2380
STARLINK-37255          
1 68554U 26070N   26099.83335647 -.00922363  28819-3 -17157-2 0  9999
2 68554  53.1584 228.7997 0000762  42.9060 272.1712 16.00368706  2388
STARLINK-37146          
1 68555U 26070P   26099.83335647 -.00909965  28054-3 -17147-2 0  9993
2 68555  53.1586 228.8080 0000735  44.7952 266.2316 16.00140151  2381
STARLINK-37144          
1 68556U 26070Q   26099.83335647 -.00960347  31086-3 -17601-2 0  9999
2 68556  53.1588 228.7901 0000643  42.9870 276.5622 16.00632752  2389
STARLINK-37210          
1 68557U 26070R   26099.83335647 -.00946129  30221-3 -17457-2 0  9991
2 68557  53.1587 228.7951 0000687  45.8132 271.7032 16.00514060  2388
STARLINK-37227          
1 68558U 26070S   26099.83335647 -.00975103  31996-3 -17751-2 0  9993
2 68558  53.1585 228.7860 0000659  43.6445 277.9579 16.00752923  2384
